NORAD_CAT_ID,OBJECT_NAME,OBJECT_TYPE,EPOCH,MEAN_MOTION,ECCENTRICITY,INCLINATION,RA_OF_ASC_NODE,ARG_OF_PERICENTER,MEAN_ANOMALY,BSTAR,MEAN_MOTION_DOT,MEAN_MOTION_DDOT,TLE_LINE0,TLE_LINE1,TLE_LINE2,SEMIMAJOR_AXIS,PERIOD,APOGEE,PERIGEE,DECAYED
52117.0,STARLINK-3738,PAYLOAD,2024-08-16 00:01:50,15.0883624,0.0001525,53.216,121.044,96.6787,263.4379,0.0012699,0.00019978,0.0,0 STARLINK-3738,1 52117U 22029AF  24229.00127536  .00019978  00000-0  12699-2 0  9997,2 52117  53.2160 121.0440 0001525  96.6787 263.4379 15.08836240134642,6917.892,95.438,540.812,538.702,0.0
52117.0,STARLINK-3738,PAYLOAD,2024-08-17 03:03:23,15.08846396,0.0001471,53.2156,115.9874,92.211,267.905,0.00052514,8.081e-05,0.0,0 STARLINK-3738,1 52117U 22029AF  24230.12735654  .00008081  00000-0  52514-3 0  9992,2 52117  53.2156 115.9874 0001471  92.2110 267.9050 15.08846396134819,6917.861,95.437,540.743,538.708,0.0
52117.0,STARLINK-3738,PAYLOAD,2024-08-17 22:08:01,15.0884076,0.0001457,53.2158,112.4189,94.3461,265.7698,0.00017689,2.528e-05,0.0,0 STARLINK-3738,1 52117U 22029AF  24230.92223726  .00002528  00000-0  17689-3 0  9996,2 52117  53.2158 112.4189 0001457  94.3461 265.7698 15.08840760134934,6917.878,95.438,540.751,538.735,0.0
52117.0,STARLINK-3738,PAYLOAD,2024-08-17 23:43:24,15.08844175,0.0001296,53.2151,112.1201,120.9879,239.124,0.00019403,2.802e-05,0.0,0 STARLINK-3738,1 52117U 22029AF  24230.98847425  .00002802  00000-0  19403-3 0  9991,2 52117  53.2151 112.1201 0001296 120.9879 239.1240 15.08844175134942,6917.868,95.437,540.629,538.836,0.0
52117.0,STARLINK-3738,PAYLOAD,2024-08-18 20:23:25,15.08833232,0.0001235,53.215,108.2546,117.3021,242.8097,-1.3435e-05,-5.02e-06,0.0,0 STARLINK-3738,1 52117U 22029AF  24231.84960123 -.00000502  00000-0 -13435-4 0  9995,2 52117  53.2150 108.2546 0001235 117.3021 242.8097 15.08833232135079,6917.901,95.438,540.62,538.912,0.0
52117.0,STARLINK-3738,PAYLOAD,2024-08-18 21:58:48,15.08834477,0.0001234,53.2153,107.9571,116.0163,244.0956,1.5448e-07,-2.85e-06,0.0,0 STARLINK-3738,1 52117U 22029AF  24231.91584211 -.00000285  00000-0  15448-6 0  9998,2 52117  53.2153 107.9571 0001234 116.0163 244.0956 15.08834477135089,6917.897,95.438,540.616,538.909,0.0
52117.0,STARLINK-3738,PAYLOAD,2024-08-19 09:06:30,15.08846645,0.0001207,53.2163,105.8751,106.7632,253.3493,3.7134e-05,3.03e-06,0.0,0 STARLINK-3738,1 52117U 22029AF  24232.37951721  .00000303  00000-0  37134-4 0  9997,2 52117  53.2163 105.8751 0001207 106.7632 253.3493 15.08846645135151,6917.86,95.437,540.56,538.89,0.0
52117.0,STARLINK-3738,PAYLOAD,2024-08-20 01:00:22,15.08841373,0.0001323,53.2172,102.8981,96.9851,263.1292,3.6804e-05,2.98e-06,0.0,0 STARLINK-3738,1 52117U 22029AF  24233.04192220  .00000298  00000-0  36804-4 0  9999,2 52117  53.2172 102.8981 0001323  96.9851 263.1292 15.08841373135255,6917.876,95.437,540.656,538.826,0.0
52117.0,STARLINK-3738,PAYLOAD,2024-08-20 20:04:58,15.08848596,0.0001283,53.2176,99.3329,115.9426,244.1699,0.0001744,2.489e-05,0.0,0 STARLINK-3738,1 52117U 22029AF  24233.83679307  .00002489  00000-0  17440-3 0  9990,2 52117  53.2176  99.3329 0001283 115.9426 244.1699 15.08848596135377,6917.854,95.437,540.607,538.832,0.0
52117.0,STARLINK-3738,PAYLOAD,2024-08-21 00:51:08,15.08850425,0.0001354,53.2173,98.441,106.1618,253.9523,0.00018875,2.718e-05,0.0,0 STARLINK-3738,1 52117U 22029AF  24234.03551207  .00002718  00000-0  18875-3 0  9999,2 52117  53.2173  98.4410 0001354 106.1618 253.9523 15.08850425135401,6917.849,95.437,540.65,538.777,0.0
52117.0,STARLINK-3738,PAYLOAD,2024-08-21 18:20:23,15.08841783,0.0001377,53.2165,95.1657,121.2508,238.8619,9.7642e-05,1.266e-05,0.0,0 STARLINK-3738,1 52117U 22029AF  24234.76415744  .00001266  00000-0  97642-4 0  9991,2 52117  53.2165  95.1657 0001377 121.2508 238.8619 15.08841783135517,6917.875,95.437,540.693,538.787,0.0
52117.0,STARLINK-3738,PAYLOAD,2024-08-21 21:31:09,15.08835852,0.0001233,53.2167,94.5725,102.8341,257.2789,3.3474e-05,2.45e-06,0.0,0 STARLINK-3738,1 52117U 22029AF  24234.89664265  .00000245  00000-0  33474-4 0  9998,2 52117  53.2167  94.5725 0001233 102.8341 257.2789 15.08835852135534,6917.893,95.438,540.611,538.905,0.0
52117.0,STARLINK-3738,PAYLOAD,2024-08-22 00:41:56,15.08836544,0.0001237,53.2165,93.98,109.0479,251.0647,-3.9509e-05,-9.17e-06,0.0,0 STARLINK-3738,1 52117U 22029AF  24235.02912392 -.00000917  00000-0 -39509-4 0  9994,2 52117  53.2165  93.9800 0001237 109.0479 251.0647 15.08836544135550,6917.891,95.438,540.612,538.9,0.0
